STARLINK-3673           
1 52093U 22029F   26068.34304726 -.00000129  00000+0  99953-5 0  9997
2 52093  53.2164  90.6888 0001433  83.0502 277.0653 15.08837259220608
LEMUR-2-MARHISYAM       
1 60536U 24149BW  26068.74036894  .00013075  00000+0  82973-3 0  9990
2 60536  97.6912 151.2662 0003578 107.3271 252.8349 15.09015520 85478
